NORAD_CAT_ID,OBJECT_NAME,OBJECT_TYPE,EPOCH,MEAN_MOTION,ECCENTRICITY,INCLINATION,RA_OF_ASC_NODE,ARG_OF_PERICENTER,MEAN_ANOMALY,BSTAR,MEAN_MOTION_DOT,MEAN_MOTION_DDOT,TLE_LINE0,TLE_LINE1,TLE_LINE2,SEMIMAJOR_AXIS,PERIOD,APOGEE,PERIGEE,DECAYED
52480.0,STARLINK-3839,PAYLOAD,2022-12-04 13:34:16,15.08837566,0.0002461,53.2201,6.2908,32.229,327.8852,7.5133e-05,9.08e-06,0.0,0 STARLINK-3839,1 52480U 22049AF  22338.56547079  .00000908  00000-0  75133-4 0  9997,2 52480  53.2201   6.2908 0002461  32.2290 327.8852 15.08837566 32593,6917.888000000001,95.438,541.455,538.05,0.0
52480.0,STARLINK-3839,PAYLOAD,2022-12-05 02:17:18,15.08872092,0.0002025,53.2202,3.9116,26.8149,333.2948,0.00023759,3.498e-05,0.0,0 STARLINK-3839,1 52480U 22049AF  22339.09535594  .00003498  00000-0  23759-3 0  9998,2 52480  53.2202   3.9116 0002025  26.8149 333.2948 15.08872092 32676,6917.781999999997,95.436,541.048,538.246,0.0
52480.0,STARLINK-3839,PAYLOAD,2022-12-05 08:38:53,15.08841864,0.0002313,53.2201,2.7228,33.448,326.6658,8.4882e-05,1.063e-05,0.0,0 STARLINK-3839,1 52480U 22049AF  22339.36033769  .00001063  00000-0  84882-4 0  9996,2 52480  53.2201   2.7228 0002313  33.4480 326.6658 15.08841864 32710,6917.875,95.437,541.34,538.14,0.0
52480.0,STARLINK-3839,PAYLOAD,2022-12-05 18:11:12,15.0883374,0.0002264,53.2201,0.9391,26.0466,334.064,-1.0516e-05,-4.56e-06,0.0,0 STARLINK-3839,1 52480U 22049AF  22339.75778543 -.00000456  00000-0 -10516-4 0  9995,2 52480  53.2201   0.9391 0002264  26.0466 334.0640 15.08833740 32772,6917.9,95.438,541.331,538.198,0.0
52480.0,STARLINK-3839,PAYLOAD,2022-12-06 08:29:40,15.08839972,0.0002312,53.2204,358.2625,33.0583,327.0553,6.513e-05,7.48e-06,0.0,0 STARLINK-3839,1 52480U 22049AF  22340.35394186  .00000748  00000-0  65130-4 0  9994,2 52480  53.2204 358.2625 0002312  33.0583 327.0553 15.08839972 32864,6917.88,95.438,541.345,538.146,0.0
52480.0,STARLINK-3839,PAYLOAD,2022-12-06 18:01:59,15.08834453,0.0002281,53.2189,356.4785,34.4345,325.6795,-1.4153e-05,-5.14e-06,0.0,0 STARLINK-3839,1 52480U 22049AF  22340.75138769 -.00000514  00000-0 -14153-4 0  9993,2 52480  53.2189 356.4785 0002281  34.4345 325.6795 15.08834453 32769,6917.897,95.438,541.34,538.184,0.0
52480.0,STARLINK-3839,PAYLOAD,2022-12-07 00:23:31,15.08848722,0.0002176,53.2179,355.2874,31.5002,328.612,-0.00019768,-3.434e-05,0.0,0 STARLINK-3839,1 52480U 22049AF  22341.01634039 -.00003434  00000-0 -19768-3 0  9994,2 52480  53.2179 355.2874 0002176  31.5002 328.6120 15.08848722 32966,6917.854,95.437,541.224,538.2130000000002,0.0
52480.0,STARLINK-3839,PAYLOAD,2022-12-07 08:20:28,15.08826314,0.0002238,53.2193,353.8023,26.9244,333.1864,-4.985600000000001e-05,-1.081e-05,0.0,0 STARLINK-3839,1 52480U 22049AF  22341.34755138 -.00001081  00000-0 -49856-4 0  9992,2 52480  53.2193 353.8023 0002238  26.9244 333.1864 15.08826314 33013,6917.922,95.438,541.335,538.239,0.0
52480.0,STARLINK-3839,PAYLOAD,2022-12-07 17:52:47,15.08829454,0.0002313,53.2191,352.01800000000014,32.7057,327.4078,0.0001055,1.391e-05,0.0,0 STARLINK-3839,1 52480U 22049AF  22341.74498913  .00001391  00000-0  10550-3 0  9991,2 52480  53.2191 352.0180 0002313  32.7057 327.4078 15.08829454 33074,6917.913000000001,95.438,541.378,538.178,0.0
52480.0,STARLINK-3839,PAYLOAD,2022-12-08 01:49:42,15.08844397,0.0002286,53.2188,350.5321,34.8153,325.2988,0.0001127,1.506e-05,0.0,0 STARLINK-3839,1 52480U 22049AF  22342.07618131  .00001506  00000-0  11270-3 0  9992,2 52480  53.2188 350.5321 0002286  34.8153 325.2988 15.08844397 33124,6917.8669999999975,95.437,541.313,538.151,0.0
52480.0,STARLINK-3839,PAYLOAD,2022-12-08 17:43:33,15.08836643,0.0002533,53.2182,347.5576,33.5621,326.5531,0.00016519,2.341e-05,0.0,0 STARLINK-3839,1 52480U 22049AF  22342.73858668  .00002341  00000-0  16519-3 0  9995,2 52480  53.2182 347.5576 0002533  33.5621 326.5531 15.08836643 33063,6917.891,95.438,541.508,538.003,0.0
52480.0,STARLINK-3839,PAYLOAD,2022-12-09 09:37:29,15.08748745,0.0004705,53.2182,344.585,47.1689,312.9697,-0.0011762,-0.00018918,0.0,0 STARLINK-3839,1 52480U 22049AF  22343.40103822 -.00018918  00000-0 -11762-2 0  9998,2 52480  53.2182 344.5850 0004705  47.1689 312.9697 15.08748745 33329,6918.159000000002,95.443,543.279,536.769,0.0
52480.0,STARLINK-3839,PAYLOAD,2022-12-09 17:34:23,15.08769249,0.0003112,53.2175,343.1009,291.0312,69.0347,-0.00038009,-6.321e-05,0.0,0 STARLINK-3839,1 52480U 22049AF  22343.73221242 -.00006321  00000-0 -38009-3 0  9990,2 52480  53.2175 343.1009 0003112 291.0312  69.0347 15.08769249 33375,6918.097,95.442,542.115,537.809,0.0
52480.0,STARLINK-3839,PAYLOAD,2022-12-10 06:17:27,15.08826996,0.0002427,53.2171,340.7208,29.6318,330.4811,-0.00012918,-2.343e-05,0.0,0 STARLINK-3839,1 52480U 22049AF  22344.26212489 -.00002343  00000-0 -12918-3 0  9993,2 52480  53.2171 340.7208 0002427  29.6318 330.4811 15.08826996 33457,6917.92,95.438,541.464,538.106,0.0
52480.0,STARLINK-3839,PAYLOAD,2022-12-10 09:28:13,15.08832671,0.0002028,53.2178,340.1232,25.7523,334.3569,-6.3355e-06,-3.89e-06,0.0,0 STARLINK-3839,1 52480U 22049AF  22344.39460076 -.00000389  00000-0 -63355-5 0  9995,2 52480  53.2178 340.1232 0002028  25.7523 334.3569 15.08832671 33312,6917.903,95.438,541.1709999999998,538.365,0.0
52480.0,STARLINK-3839,PAYLOAD,2022-12-11 09:19:00,15.08841711,0.0002433,53.2181,335.6634,32.7358,327.3784,0.00031325,4.701e-05,0.0,0 STARLINK-3839,1 52480U 22049AF  22345.38820350  .00004701  00000-0  31325-3 0  9990,2 52480  53.2181 335.6634 0002433  32.7358 327.3784 15.08841711 33467,6917.875,95.437,541.423,538.057,0.0
52480.0,STARLINK-3839,PAYLOAD,2022-12-12 04:23:39,15.08825022,0.0001871,53.218,332.0939,17.9894,342.1164,0.0010712,0.00016794,0.0,0 STARLINK-3839,1 52480U 22049AF  22346.18309437  .00016794  00000-0  10712-2 0  9998,2 52480  53.2180 332.0939 0001871  17.9894 342.1164 15.08825022 33745,6917.926,95.439,541.086,538.497,0.0
52480.0,STARLINK-3839,PAYLOAD,2022-12-12 10:45:10,15.0883897,0.0002658,53.2174,330.9056,33.37,326.7459,6.4971e-05,7.46e-06,0.0,0 STARLINK-3839,1 52480U 22049AF  22346.44804370  .00000746  00000-0  64971-4 0  9991,2 52480  53.2174 330.9056 0002658  33.3700 326.7459 15.08838970 33782,6917.884,95.438,541.587,537.91,0.0
52480.0,STARLINK-3839,PAYLOAD,2022-12-13 09:00:34,15.0884608,0.0002431,53.2179,326.7422,33.6086,326.506,4.1706e-05,3.76e-06,0.0,0 STARLINK-3839,1 52480U 22049AF  22347.37539615  .00000376  00000-0  41706-4 0  9991,2 52480  53.2179 326.7422 0002431  33.6086 326.5060 15.08846080 33929,6917.861999999999,95.437,541.409,538.045,0.0
52480.0,STARLINK-3839,PAYLOAD,2022-12-13 10:35:57,15.08847492,0.0002422,53.2178,326.4449,33.7356,326.379,6.0251e-05,6.71e-06,0.0,0 STARLINK-3839,1 52480U 22049AF  22347.44163504  .00000671  00000-0  60251-4 0  9993,2 52480  53.2178 326.4449 0002422  33.7356 326.3790 15.08847492 33774,6917.857,95.437,541.398,538.047,0.0
52480.0,STARLINK-3839,PAYLOAD,2022-12-13 15:22:06,15.08843874,0.0002216,53.2179,325.5527,37.1914,322.9232,2.9771e-05,1.86e-06,0.0,0 STARLINK-3839,1 52480U 22049AF  22347.64035606  .00000186  00000-0  29771-4 0  9999,2 52480  53.2179 325.5527 0002216  37.1914 322.9232 15.08843874 33808,6917.869000000002,95.437,541.2669999999998,538.201,0.0
52480.0,STARLINK-3839,PAYLOAD,2022-12-14 07:15:58,15.08837896,0.0002655,53.2176,322.579,33.1483,326.9675,-6.9285e-05,-1.391e-05,0.0,0 STARLINK-3839,1 52480U 22049AF  22348.30275746 -.00001391  00000-0 -69285-4 0  9999,2 52480  53.2176 322.5790 0002655  33.1483 326.9675 15.08837896 34069,6917.887,95.438,541.589,537.915,0.0
52480.0,STARLINK-3839,PAYLOAD,2022-12-14 15:12:53,15.08839419,0.0002524,53.2175,321.0929,35.7809,324.3351,5.679e-05,6.16e-06,0.0,0 STARLINK-3839,1 52480U 22049AF  22348.63395770  .00000616  00000-0  56790-4 0  9999,2 52480  53.2175 321.0929 0002524  35.7809 324.3351 15.08839419 33954,6917.882,95.438,541.493,538.001,0.0
52480.0,STARLINK-3839,PAYLOAD,2022-12-15 10:17:31,15.08849386,0.0002404,53.2175,317.5246,34.8583,325.2566,0.00030982,4.647e-05,0.0,0 STARLINK-3839,1 52480U 22049AF  22349.42883476  .00004647  00000-0  30982-3 0  9994,2 52480  53.2175 317.5246 0002404  34.8583 325.2566 15.08849386 34236,6917.852,95.437,541.38,538.054,0.0
52480.0,STARLINK-3839,PAYLOAD,2022-12-15 15:03:40,15.08841504,0.0002312,53.2175,316.6321,33.6998,326.4141,0.00013377,1.841e-05,0.0,0 STARLINK-3839,1 52480U 22049AF  22349.62755708  .00001841  00000-0  13377-3 0  9994,2 52480  53.2175 316.6321 0002312  33.6998 326.4141 15.08841504 34107,6917.876,95.437,541.34,538.141,0.0
52480.0,STARLINK-3839,PAYLOAD,2022-12-15 21:25:13,15.08843783,0.000212,53.2176,315.4433,28.0666,332.0440000000001,0.00017536,2.504e-05,0.0,0 STARLINK-3839,1 52480U 22049AF  22349.89251531  .00002504  00000-0  17536-3 0  9996,2 52480  53.2176 315.4433 0002120  28.0666 332.0440 15.08843783 34304,6917.869000000002,95.437,541.2,538.2669999999998,0.0
52480.0,STARLINK-3839,PAYLOAD,2022-12-16 06:57:31,15.08857984,0.0002157,53.2166,313.6592,31.6943,328.4178,0.00055047,8.488e-05,0.0,0 STARLINK-3839,1 52480U 22049AF  22350.28995047  .00008488  00000-0  55047-3 0  9994,2 52480  53.2166 313.6592 0002157  31.6943 328.4178 15.08857984 34368,6917.825,95.436,541.183,538.198,0.0
52480.0,STARLINK-3839,PAYLOAD,2022-12-16 21:16:00,15.08842826,0.0002566999999999,53.2162,310.9845,38.2677,321.8497,3.3519e-05,2.45e-06,0.0,0 STARLINK-3839,1 52480U 22049AF  22350.88611392  .00000245  00000-0  33519-4 0  9992,2 52480  53.2162 310.9845 0002567  38.2677 321.8497 15.08842826 34457,6917.871999999999,95.437,541.513,537.961,0.0
52480.0,STARLINK-3839,PAYLOAD,2022-12-17 03:37:33,15.08834372,0.000233,53.217,309.793,38.4244,321.6914,-4.7902e-05,-1.051e-05,0.0,0 STARLINK-3839,1 52480U 22049AF  22351.15107856 -.00001051  00000-0 -47902-4 0  9997,2 52480  53.2170 309.7930 0002330  38.4244 321.6914 15.08834372 34490,6917.898,95.438,541.374,538.151,0.0
